[{"OBJECT_NAME":"POPACS 2","OBJECT_ID":"2013-055E","EPOCH":"2026-03-09T12:13:44.500512","MEAN_MOTION":14.87802959,"ECCENTRICITY":0.04307455,"INCLINATION":80.9893,"RA_OF_ASC_NODE":258.0384,"ARG_OF_PERICENTER":153.4128,"MEAN_ANOMALY":208.9906,"EPHEMERIS_TYPE":0,"CLASSIFICATION_TYPE":"U","NORAD_CAT_ID":39269,"ELEMENT_SET_NO":999,"REV_AT_EPOCH":64837,"BSTAR":0.00051934698,"MEAN_MOTION_DOT":0.00029878,"MEAN_MOTION_DDOT":0},{"OBJECT_NAME":"CZ-6A DEB","OBJECT_ID":"2022-151XW","EPOCH":"2026-03-09T22:33:48.891744","MEAN_MOTION":14.1605147,"ECCENTRICITY":0.00525641,"INCLINATION":98.8507,"RA_OF_ASC_NODE":74.8343,"ARG_OF_PERICENTER":253.5683,"MEAN_ANOMALY":105.971,"EPHEMERIS_TYPE":0,"CLASSIFICATION_TYPE":"U","NORAD_CAT_ID":55524,"ELEMENT_SET_NO":999,"REV_AT_EPOCH":16580,"BSTAR":0.0016340271,"MEAN_MOTION_DOT":3.226e-5,"MEAN_MOTION_DDOT":0}]
